[{"OBJECT_NAME":"HULIANWANG DIGUI-08","OBJECT_ID":"2024-240H","EPOCH":"2026-03-09T22:11:03.145344","MEAN_MOTION":13.24421356,"ECCENTRICITY":0.00021595,"INCLINATION":86.5072,"RA_OF_ASC_NODE":16.8324,"ARG_OF_PERICENTER":82.9892,"MEAN_ANOMALY":277.1488,"EPHEMERIS_TYPE":0,"CLASSIFICATION_TYPE":"U","NORAD_CAT_ID":62330,"ELEMENT_SET_NO":999,"REV_AT_EPOCH":5950,"BSTAR":8.5030056e-5,"MEAN_MOTION_DOT":5.1e-7,"MEAN_MOTION_DDOT":0},{"OBJECT_NAME":"OSCAR 23","OBJECT_ID":"1988-033A","EPOCH":"2026-03-09T22:32:39.051168","MEAN_MOTION":13.27803732,"ECCENTRICITY":0.01878298,"INCLINATION":90.3295,"RA_OF_ASC_NODE":19.1121,"ARG_OF_PERICENTER":298.272,"MEAN_ANOMALY":127.5578,"EPHEMERIS_TYPE":0,"CLASSIFICATION_TYPE":"U","NORAD_CAT_ID":19070,"ELEMENT_SET_NO":999,"REV_AT_EPOCH":83410,"BSTAR":0.00021723624,"MEAN_MOTION_DOT":1.14e-6,"MEAN_MOTION_DDOT":0}]
